     2.11           N: GPS NAV DATA                         RINEX VERSION / TYPE
teqc  2019Feb25                         20221121 12:23:35UTCPGM / RUN BY / DATE
OSX ker:10.11.6|Core i5|gcc 4.3 -m64|OSX ker:10.10+|=+      COMMENT
    6.5193D-09  2.2352D-08 -5.9605D-08 -1.1921D-07          ION ALPHA
    8.6016D+04  9.8304D+04 -6.5536D+04 -5.2429D+05          ION BETA
    9.313225746155D-10 0.000000000000D+00   319488     1533 DELTA-UTC: A0,A1,T,W
                                                            END OF HEADER
29 09  5 26 11 59 44.0 2.387631684542D-05 3.865352482535D-12 0.000000000000D+00
    1.700000000000D+01 9.906250000000D+00 4.934848413387D-09-2.457009274767D+00
    5.606561899185D-07 3.436657250859D-03 5.612149834633D-06 5.153667327881D+03
    2.159840000000D+05-3.352761268616D-08-1.417705427156D+00 8.195638656616D-08
    9.594455693305D-01 2.650000000000D+02-1.321943470926D+00-8.072121950566D-09
    4.935919886590D-10 1.000000000000D+00 1.533000000000D+03 0.000000000000D+00
    2.000000000000D+00 0.000000000000D+00-8.847564458847D-09 1.700000000000D+01
    2.088180000000D+05 4.000000000000D+00
25 09  5 26 12  0  0.0 4.316400736570D-04 1.898570189951D-11 0.000000000000D+00
    3.400000000000D+01-1.504687500000D+02 4.065883646088D-09 2.953976454256D+00
   -7.662922143936D-06 1.142229314428D-02 3.414228558540D-06 5.153656522751D+03
    2.160000000000D+05 4.656612873077D-08 2.651893062402D+00 8.195638656616D-08
    9.698335150816D-01 3.188750000000D+02-1.207019910870D+00-7.909258023772D-09
   -3.971594004260D-10 1.000000000000D+00 1.533000000000D+03 0.000000000000D+00
    2.000000000000D+00 0.000000000000D+00-7.450580596924D-09 3.400000000000D+01
    2.088180000000D+05 4.000000000000D+00
24 09  5 26 12  0  0.0 1.918552443385D-04 2.955857780762D-12 0.000000000000D+00
    8.100000000000D+01-8.031250000000D+00 4.957706508376D-09 2.459512589463D+00
   -3.743916749954D-07 6.696727359667D-03 8.963048458099D-06 5.153672737122D+03
    2.160000000000D+05 8.568167686462D-08-3.452243530086D-01 1.378357410431D-07
    9.509194764931D-01 1.999687500000D+02-6.497463473777D-01-7.980332412877D-09
   -6.450268679581D-10 1.000000000000D+00 1.533000000000D+03 0.000000000000D+00
    2.000000000000D+00 0.000000000000D+00-1.396983861923D-09 8.100000000000D+01
    2.088180000000D+05 4.000000000000D+00
10 09  5 26 12  0  0.0-1.657428219914D-05-5.684341886081D-13 0.000000000000D+00
    2.200000000000D+01 1.363437500000D+02 4.364824669610D-09 1.141862348613D+00
    7.437542080879D-06 8.591382182203D-03 1.087225973606D-05 5.153617631912D+03
    2.160000000000D+05-5.960464477539D-08 6.750724261277D-01 1.098960638046D-07
    9.586103235678D-01 1.681562500000D+02 6.271670699459D-01-7.992832933574D-09
   -2.692969315838D-10 1.000000000000D+00 1.533000000000D+03 0.000000000000D+00
    2.000000000000D+00 0.000000000000D+00-2.793967723846D-09 2.200000000000D+01
    2.088180000000D+05 4.000000000000D+00
 7 09  5 26 12  0  0.0 1.821108162403D-05-6.821210263297D-13 0.000000000000D+00
    2.100000000000D+01-1.544062500000D+02 4.123028883560D-09-1.489840050961D+00
   -7.990747690201D-06 2.571383956820D-03 4.451721906662D-06 5.153673856735D+03
    2.160000000000D+05-1.173466444016D-07 2.746364442543D+00 5.774199962616D-08
    9.676381387896D-01 2.981250000000D+02 2.876845006999D+00-8.053192590653D-09
   -2.692969315838D-10 1.000000000000D+00 1.533000000000D+03 0.000000000000D+00
    2.000000000000D+00 0.000000000000D+00-1.071020960808D-08 2.100000000000D+01
    2.094360000000D+05 4.000000000000D+00
16 09  5 26 12  0  0.0 4.767999053001D-05-3.410605131648D-12 0.000000000000D+00
    1.040000000000D+02-5.768750000000D+01 3.947664436069D-09 2.351056294726D+00
   -2.980232238770D-06 5.360854673199D-03 1.158006489277D-05 5.153556461334D+03
    2.160000000000D+05-2.793967723846D-08-2.468368726860D+00-1.490116119385D-08
    9.685381391583D-01 1.594687500000D+02-3.551784352932D-01-7.548171554500D-09
    5.303792352812D-10 1.000000000000D+00 1.533000000000D+03 0.000000000000D+00
    2.000000000000D+00 0.000000000000D+00-9.778887033463D-09 1.040000000000D+02
    2.095560000000D+05 4.000000000000D+00
 8 09  5 26 12  0  0.0-2.048551104963D-04-1.705302565824D-12 0.000000000000D+00
    5.300000000000D+01-1.670000000000D+02 3.709083069626D-09-2.217280805731D+00
   -8.556991815567D-06 1.056911156047D-02 5.178153514862D-06 5.153652711868D+03
    2.160000000000D+05-1.545995473862D-07 2.806680107298D+00-1.676380634308D-08
    9.888738605541D-01 2.950000000000D+02 2.990966930372D+00-7.812111120071D-09
   -2.300095808223D-10 1.000000000000D+00 1.533000000000D+03 0.000000000000D+00
    2.000000000000D+00 0.000000000000D+00-3.725290298462D-09 5.300000000000D+01
    2.128560000000D+05 4.000000000000D+00
21 09  5 26 11 59 44.0 1.189252361655D-05-2.046363078989D-12 0.000000000000D+00
    1.200000000000D+01-1.531250000000D+01 5.333436444750D-09-2.464656330852D+00
   -1.087784767151D-06 1.529150910210D-02 9.225681424141D-06 5.153611700058D+03
    2.159840000000D+05 9.499490261078D-08-3.773167511801D-01-3.539025783539D-07
    9.342589885969D-01 1.884375000000D+02-2.601995564359D+00-8.141767708734D-09
   -4.918061999880D-10 1.000000000000D+00 1.533000000000D+03 0.000000000000D+00
    2.000000000000D+00 0.000000000000D+00-1.210719347000D-08 1.200000000000D+01
    2.133060000000D+05 4.000000000000D+00
16 09  5 26 11 59 44.0 4.767812788486D-05-3.410605131648D-12 0.000000000000D+00
    6.000000000000D+00-5.768750000000D+01 3.947664436069D-09 2.348721749574D+00
   -2.980232238770D-06 5.360852112062D-03 1.158006489277D-05 5.153556463242D+03
    2.159840000000D+05-2.793967723846D-08-2.468368614215D+00-1.490116119385D-08
    9.685381333066D-01 1.594687500000D+02-3.551778164789D-01-7.548171554500D-09
    5.300220775470D-10 1.000000000000D+00 1.533000000000D+03 0.000000000000D+00
    2.000000000000D+00 0.000000000000D+00-9.778887033463D-09 6.000000000000D+00
    2.134560000000D+05 4.000000000000D+00
15 09  5 26 12  0  0.0-2.953000366688D-04-3.524291969370D-12 0.000000000000D+00
    6.200000000000D+01 7.671875000000D+01 4.850916345851D-09 8.658381476457D-01
    3.844499588013D-06 1.432681572624D-03 1.341104507446D-07 5.153618343353D+03
    2.160000000000D+05-4.656612873077D-08 1.684193276244D+00 3.725290298462D-09
    9.561612450967D-01 3.690312500000D+02-4.773288545485D-01-8.564642466022D-09
   -2.678683006471D-11 1.000000000000D+00 1.533000000000D+03 0.000000000000D+00
    2.000000000000D+00 0.000000000000D+00-9.778887033463D-09 6.200000000000D+01
    2.145360000000D+05 4.000000000000D+00
24 09  5 26 14  0  0.0 1.918761990964D-04 2.955857780762D-12 0.000000000000D+00
    8.200000000000D+01-1.156250000000D+00 4.903775690512D-09-2.773463014781D+00
    5.960464477539D-08 6.697675678879D-03 8.940696716309D-06 5.153670932770D+03
    2.232000000000D+05-8.381903171539D-08-3.452820739043D-01 7.264316082001D-08
    9.509156568140D-01 2.005000000000D+02-6.497706449841D-01-7.875328039024D-09
   -5.346651280915D-10 1.000000000000D+00 1.533000000000D+03 0.000000000000D+00
    2.000000000000D+00 0.000000000000D+00-1.396983861923D-09 8.200000000000D+01
    2.160180000000D+05 4.000000000000D+00
 7 09  5 26 14  0  0.0 1.820642501116D-05-6.821210263297D-13 0.000000000000D+00
    2.200000000000D+01-1.471562500000D+02 4.203389373754D-09-4.396169842691D-01
   -7.780268788338D-06 2.570813638158D-03 4.729256033897D-06 5.153673425674D+03
    2.232000000000D+05 2.980232238770D-08 2.746307085914D+00-6.705522537231D-08
    9.676354514091D-01 2.944375000000D+02 2.876799103556D+00-8.109623512656D-09
   -4.210889686172D-10 1.000000000000D+00 1.533000000000D+03 0.000000000000D+00
    2.000000000000D+00 0.000000000000D+00-1.071020960808D-08 2.200000000000D+01
    2.160180000000D+05 4.000000000000D+00
 8 09  5 26 14  0  0.0-2.048676833510D-04-1.705302565824D-12 0.000000000000D+00
    5.400000000000D+01-1.574062500000D+02 3.628365421698D-09-1.166911008356D+00
   -8.225440979004D-06 1.056871295441D-02 5.640089511871D-06 5.153656408310D+03
    2.232000000000D+05-8.754432201386D-08 2.806623801044D+00-1.639127731323D-07
    9.888722103825D-01 2.840937500000D+02 2.990783344394D+00-7.843183842946D-09
   -2.696540893180D-10 1.000000000000D+00 1.533000000000D+03 0.000000000000D+00
    2.000000000000D+00 0.000000000000D+00-3.725290298462D-09 5.400000000000D+01
    2.160180000000D+05 4.000000000000D+00
21 09  5 26 13 59 44.0 1.187762245536D-05-2.046363078989D-12 0.000000000000D+00
    1.300000000000D+01-8.968750000000D+00 5.338436653029D-09-1.414627372908D+00
   -6.090849637985D-07 1.529277814552D-02 7.659196853638D-06 5.153605543137D+03
    2.231840000000D+05 2.123415470123D-07-3.773761617462D-01-1.415610313416D-07
    9.342561827200D-01 2.109062500000D+02-2.601797458919D+00-8.171768958406D-09
   -3.571577341961D-10 1.000000000000D+00 1.533000000000D+03 0.000000000000D+00
    2.000000000000D+00 0.000000000000D+00-1.210719347000D-08 1.300000000000D+01
    2.160180000000D+05 4.000000000000D+00
29 09  5 26 14  0  0.0 2.390425652266D-05 3.865352482535D-12 0.000000000000D+00
    1.800000000000D+01 9.437500000000D+00 4.832701301407D-09-1.404670423304D+00
    6.556510925293D-07 3.436789615080D-03 6.243586540222D-06 5.153666126251D+03
    2.232000000000D+05-1.676380634308D-08-1.417763581075D+00 4.097819328308D-08
    9.594493275671D-01 2.603437500000D+02-1.321760907527D+00-8.038191965817D-09
    5.039495629507D-10 1.000000000000D+00 1.533000000000D+03 0.000000000000D+00
    2.000000000000D+00 0.000000000000D+00-8.847564458847D-09 1.800000000000D+01
    2.160180000000D+05 4.000000000000D+00
